start=new Date('2022-06-24T00:00:00.000Z').valueOf();
sats=[{"RA_OF_ASC_NODE":"32.9202","PERIOD":"94.537","INCLINATION":"53.2175","EPOCH":"2022-06-23T14:00:01.000224","RCS_SIZE":"LARGE","MEAN_ELEMENT_THEORY":"SGP4","MEAN_MOTION_DOT":"-0.00721590","EPHEMERIS_TYPE":"0","CENTER_NAME":"EARTH","ELEMENT_SET_NO":"999","LAUNCH_DATE":"2022-03-19","MEAN_MOTION":"15.23218822","SITE":"AFETR","ARG_OF_PERICENTER":"60.3568","GP_ID":"206687818","OBJECT_ID":"2022-029AP","TLE_LINE1":"1 52125U 22029AP  22174.58334491 -.00721590  00000-0 -32277-1 0  9991","OBJECT_NAME":"STARLINK-3727","DECAY_DATE":null,"TLE_LINE2":"2 52125  53.2175  32.9202 0001449  60.3568 234.8063 15.23218822  1308","SEMIMAJOR_AXIS":"6874.276","REF_FRAME":"TEME","ECCENTRICITY":"0.00014490","NORAD_CAT_ID":"52125","TIME_SYSTEM":"UTC","OBJECT_TYPE":"PAYLOAD","MEAN_ANOMALY":"234.8063","APOAPSIS":"497.137","MEAN_MOTION_DDOT":"0.0000000000000","PERIAPSIS":"495.145","COUNTRY_CODE":"US","CLASSIFICATION_TYPE":"U","REV_AT_EPOCH":"130","BSTAR":"-0.03227700000000","FILE":"3500539"},{"TIME_SYSTEM":"UTC","ECCENTRICITY":"0.00015200","NORAD_CAT_ID":"52126","REF_FRAME":"TEME","SEMIMAJOR_AXIS":"6875.469","APOAPSIS":"498.379","PERIAPSIS":"496.289","MEAN_MOTION_DDOT":"0.0000000000000","MEAN_ANOMALY":"211.4063","OBJECT_TYPE":"PAYLOAD","FILE":"3500539","REV_AT_EPOCH":"130","BSTAR":"-0.03269600000000","CLASSIFICATION_TYPE":"U","COUNTRY_CODE":"US","MEAN_ELEMENT_THEORY":"SGP4","RCS_SIZE":"LARGE","EPOCH":"2022-06-23T14:00:01.000224","PERIOD":"94.561","INCLINATION":"53.2174","RA_OF_ASC_NODE":"32.9102","MEAN_MOTION_DOT":"-0.00722333","GP_ID":"206688030","ARG_OF_PERICENTER":"57.0041","OBJECT_ID":"2022-029AQ","MEAN_MOTION":"15.22822511","SITE":"AFETR","LAUNCH_DATE":"2022-03-19","EPHEMERIS_TYPE":"0","CENTER_NAME":"EARTH","ELEMENT_SET_NO":"999","TLE_LINE2":"2 52126  53.2174  32.9102 0001520  57.0041 211.4063 15.22822511  1302","DECAY_DATE":null,"TLE_LINE1":"1 52126U 22029AQ  22174.58334491 -.00722333  00000-0 -32696-1 0  9993","OBJECT_NAME":"STARLINK-3732"},{"APOAPSIS":"498.165","MEAN_MOTION_DDOT":"0.0000000000000","PERIAPSIS":"496.002","OBJECT_TYPE":"PAYLOAD","MEAN_ANOMALY":"289.0409","FILE":"3500660","REV_AT_EPOCH":"1639","BSTAR":"-0.03276000000000","CLASSIFICATION_TYPE":"U","COUNTRY_CODE":"US","TIME_SYSTEM":"UTC","ECCENTRICITY":"0.00015730","NORAD_CAT_ID":"52127","SEMIMAJOR_AXIS":"6875.219","REF_FRAME":"TEME","GP_ID":"206690561","ARG_OF_PERICENTER":"48.2849","OBJECT_ID":"2022-029AR","SITE":"AFETR","MEAN_MOTION":"15.22905590","LAUNCH_DATE":"2022-03-19","EPHEMERIS_TYPE":"0","CENTER_NAME":"EARTH","ELEMENT_SET_NO":"999","TLE_LINE2":"2 52127  53.2175  31.3965 0001573  48.2849 289.0409 15.22905590 16399","DECAY_DATE":null,"TLE_LINE1":"1 52127U 22029AR  22174.91667824 -.00725331  00000-0 -32760-1 0  9993","OBJECT_NAME":"STARLINK-3715","MEAN_ELEMENT_THEORY":"SGP4","EPOCH":"2022-06-23T22:00:00.999936","RCS_SIZE":"LARGE","PERIOD":"94.556","INCLINATION":"53.2175","RA_OF_ASC_NODE":"31.3965","MEAN_MOTION_DOT":"-0.00725331"},{"SEMIMAJOR_AXIS":"6874.023","REF_FRAME":"TEME","ECCENTRICITY":"0.00015460","NORAD_CAT_ID":"52129","TIME_SYSTEM":"UTC","COUNTRY_CODE":"US","CLASSIFICATION_TYPE":"U","REV_AT_EPOCH":"1640","BSTAR":"-0.03243200000000","FILE":"3500660","OBJECT_TYPE":"PAYLOAD","MEAN_ANOMALY":"316.5805","APOAPSIS":"496.951","PERIAPSIS":"494.825","MEAN_MOTION_DDOT":"0.0000000000000","MEAN_MOTION_DOT":"-0.00726537","RA_OF_ASC_NODE":"31.4059","PERIOD":"94.531","INCLINATION":"53.2175","EPOCH":"2022-06-23T22:00:00.999936","RCS_SIZE":"LARGE","MEAN_ELEMENT_THEORY":"SGP4","TLE_LINE1":"1 52129U 22029AT  22174.91667824 -.00726537  00000-0 -32432-1 0  9990","OBJECT_NAME":"STARLINK-3661","DECAY_DATE":null,"TLE_LINE2":"2 52129  53.2175  31.4059 0001546  47.4219 316.5805 15.23303030 16408","EPHEMERIS_TYPE":"0","CENTER_NAME":"EARTH","ELEMENT_SET_NO":"999","LAUNCH_DATE":"2022-03-19","MEAN_MOTION":"15.23303030","SITE":"AFETR","OBJECT_ID":"2022-029AT","GP_ID":"206690555","ARG_OF_PERICENTER":"47.4219"},{"NORAD_CAT_ID":"52131","ECCENTRICITY":"0.00015090","SEMIMAJOR_AXIS":"6871.902","REF_FRAME":"TEME","TIME_SYSTEM":"UTC","OBJECT_TYPE":"PAYLOAD","MEAN_ANOMALY":"299.9894","MEAN_MOTION_DDOT":"0.0000000000000","PERIAPSIS":"492.730","APOAPSIS":"494.804","CLASSIFICATION_TYPE":"U","COUNTRY_CODE":"US","FILE":"3500539","BSTAR":"-0.03149500000000","REV_AT_EPOCH":"130","INCLINATION":"53.2176","PERIOD":"94.488","RA_OF_ASC_NODE":"32.9396","MEAN_ELEMENT_THEORY":"SGP4","RCS_SIZE":"LARGE","EPOCH":"2022-06-23T14:00:01.000224","MEAN_MOTION_DOT":"-0.00720972","LAUNCH_DATE":"2022-03-19","ELEMENT_SET_NO":"999","CENTER_NAME":"EARTH","EPHEMERIS_TYPE":"0","GP_ID":"206688165","ARG_OF_PERICENTER":"47.7025","OBJECT_ID":"2022-029AV","SITE":"AFETR","MEAN_MOTION":"15.24008142","DECAY_DATE":null,"OBJECT_NAME":"STARLINK-3711","TLE_LINE1":"1 52131U 22029AV  22174.58334491 -.00720972  00000-0 -31495-1 0  9992","TLE_LINE2":"2 52131  53.2176  32.9396 0001509  47.7025 299.9894 15.24008142  1301"},{"MEAN_MOTION_DOT":"-0.00726013","MEAN_ELEMENT_THEORY":"SGP4","RCS_SIZE":"LARGE","EPOCH":"2022-06-23T22:00:00.999936","INCLINATION":"53.2175","PERIOD":"94.544","RA_OF_ASC_NODE":"31.4013","TLE_LINE2":"2 52132  53.2175  31.4013 0001647  43.5482 307.1621 15.23104349 16407","DECAY_DATE":null,"OBJECT_NAME":"STARLINK-3718","TLE_LINE1":"1 52132U 22029AW  22174.91667824 -.00726013  00000-0 -32599-1 0  9997","GP_ID":"206691058","OBJECT_ID":"2022-029AW","ARG_OF_PERICENTER":"43.5482","SITE":"AFETR","MEAN_MOTION":"15.23104349","LAUNCH_DATE":"2022-03-19","ELEMENT_SET_NO":"999","EPHEMERIS_TYPE":"0","CENTER_NAME":"EARTH","TIME_SYSTEM":"UTC","ECCENTRICITY":"0.00016470","NORAD_CAT_ID":"52132","SEMIMAJOR_AXIS":"6874.621","REF_FRAME":"TEME","FILE":"3500660","BSTAR":"-0.03259900000000","REV_AT_EPOCH":"1640","CLASSIFICATION_TYPE":"U","COUNTRY_CODE":"US","MEAN_MOTION_DDOT":"0.0000000000000","PERIAPSIS":"495.353","APOAPSIS":"497.618","MEAN_ANOMALY":"307.1621","OBJECT_TYPE":"PAYLOAD"},{"MEAN_MOTION_DOT":"-0.00720905","RA_OF_ASC_NODE":"32.9489","INCLINATION":"53.2176","PERIOD":"94.463","EPOCH":"2022-06-23T14:00:01.000224","RCS_SIZE":"LARGE","MEAN_ELEMENT_THEORY":"SGP4","OBJECT_NAME":"STARLINK-3707","TLE_LINE1":"1 52133U 22029AX  22174.58334491 -.00720905  00000-0 -31120-1 0  9995","DECAY_DATE":null,"TLE_LINE2":"2 52133  53.2176  32.9489 0001363  55.5177 317.8191 15.24404862  1308","ELEMENT_SET_NO":"999","EPHEMERIS_TYPE":"0","CENTER_NAME":"EARTH","LAUNCH_DATE":"2022-03-19","SITE":"AFETR","MEAN_MOTION":"15.24404862","ARG_OF_PERICENTER":"55.5177","GP_ID":"206688271","OBJECT_ID":"2022-029AX","REF_FRAME":"TEME","SEMIMAJOR_AXIS":"6870.710","ECCENTRICITY":"0.00013630","NORAD_CAT_ID":"52133","TIME_SYSTEM":"UTC","COUNTRY_CODE":"US","CLASSIFICATION_TYPE":"U","BSTAR":"-0.03112000000000","REV_AT_EPOCH":"130","FILE":"3500539","OBJECT_TYPE":"PAYLOAD","MEAN_ANOMALY":"317.8191","MEAN_MOTION_DDOT":"0.0000000000000","PERIAPSIS":"491.639","APOAPSIS":"493.512"},{"TLE_LINE2":"2 52134  53.2176  32.9444 0001467  50.1321 310.4285 15.24206536  1319","DECAY_DATE":null,"TLE_LINE1":"1 52134U 22029AY  22174.58334491 -.00721028  00000-0 -31311-1 0  9995","OBJECT_NAME":"STARLINK-3721","ARG_OF_PERICENTER":"50.1321","GP_ID":"206688483","OBJECT_ID":"2022-029AY","MEAN_MOTION":"15.24206536","SITE":"AFETR","LAUNCH_DATE":"2022-03-19","EPHEMERIS_TYPE":"0","CENTER_NAME":"EARTH","ELEMENT_SET_NO":"999","MEAN_MOTION_DOT":"-0.00721028","MEAN_ELEMENT_THEORY":"SGP4","EPOCH":"2022-06-23T14:00:01.000224","RCS_SIZE":"LARGE","PERIOD":"94.475","INCLINATION":"53.2176","RA_OF_ASC_NODE":"32.9444","FILE":"3500539","REV_AT_EPOCH":"131","BSTAR":"-0.03131100000000","CLASSIFICATION_TYPE":"U","COUNTRY_CODE":"US","APOAPSIS":"494.179","PERIAPSIS":"492.163","MEAN_MOTION_DDOT":"0.0000000000000","MEAN_ANOMALY":"310.4285","OBJECT_TYPE":"PAYLOAD","TIME_SYSTEM":"UTC","ECCENTRICITY":"0.00014670","NORAD_CAT_ID":"52134","SEMIMAJOR_AXIS":"6871.306","REF_FRAME":"TEME"},{"ARG_OF_PERICENTER":"51.0685","GP_ID":"206687819","OBJECT_ID":"2022-029AZ","MEAN_MOTION":"15.25000517","SITE":"AFETR","LAUNCH_DATE":"2022-03-19","EPHEMERIS_TYPE":"0","CENTER_NAME":"EARTH","ELEMENT_SET_NO":"999","TLE_LINE2":"2 52135  53.2175  32.9624 0001434  51.0685   0.0411 15.25000517  1300","DECAY_DATE":null,"TLE_LINE1":"1 52135U 22029AZ  22174.58334491 -.00721813  00000-0 -30608-1 0  9996","OBJECT_NAME":"STARLINK-3729","MEAN_ELEMENT_THEORY":"SGP4","RCS_SIZE":"LARGE","EPOCH":"2022-06-23T14:00:01.000224","PERIOD":"94.426","INCLINATION":"53.2175","RA_OF_ASC_NODE":"32.9624","MEAN_MOTION_DOT":"-0.00721813","APOAPSIS":"491.771","PERIAPSIS":"489.801","MEAN_MOTION_DDOT":"0.0000000000000","MEAN_ANOMALY":"0.0411","OBJECT_TYPE":"PAYLOAD","FILE":"3500539","REV_AT_EPOCH":"130","BSTAR":"-0.03060800000000","CLASSIFICATION_TYPE":"U","COUNTRY_CODE":"US","TIME_SYSTEM":"UTC","NORAD_CAT_ID":"52135","ECCENTRICITY":"0.00014340","SEMIMAJOR_AXIS":"6868.921","REF_FRAME":"TEME"},{"MEAN_ELEMENT_THEORY":"SGP4","EPOCH":"2022-06-23T14:00:01.000224","RCS_SIZE":"LARGE","INCLINATION":"53.2176","PERIOD":"94.451","RA_OF_ASC_NODE":"32.9536","MEAN_MOTION_DOT":"-0.00721182","GP_ID":"206688031","OBJECT_ID":"2022-029BA","ARG_OF_PERICENTER":"63.8984","SITE":"AFETR","MEAN_MOTION":"15.24603389","LAUNCH_DATE":"2022-03-19","ELEMENT_SET_NO":"999","EPHEMERIS_TYPE":"0","CENTER_NAME":"EARTH","TLE_LINE2":"2 52136  53.2176  32.9536 0001283  63.8984 322.1219 15.24603389  1308","DECAY_DATE":null,"OBJECT_NAME":"STARLINK-3720","TLE_LINE1":"1 52136U 22029BA  22174.58334491 -.00721182  00000-0 -30948-1 0  9993","TIME_SYSTEM":"UTC","ECCENTRICITY":"0.00012830","NORAD_CAT_ID":"52136","REF_FRAME":"TEME","SEMIMAJOR_AXIS":"6870.114","MEAN_MOTION_DDOT":"0.0000000000000","PERIAPSIS":"491.097","APOAPSIS":"492.860","OBJECT_TYPE":"PAYLOAD","MEAN_ANOMALY":"322.1219","FILE":"3500539","BSTAR":"-0.03094800000000","REV_AT_EPOCH":"130","CLASSIFICATION_TYPE":"U","COUNTRY_CODE":"US"}];
